{
  "type": "FeatureCollection",
  "features": [
    {
      "type": "Feature",
      "properties": {
        "kind": "journey_segment",
        "journey_id": "nanxing_1059_1060",
        "segment_id": "nanxing_segment_01",
        "order": 1,
        "phase_id": "nanxing_water",
        "travel_mode": "水路",
        "from_visit_id": "nanxing_01_meishan_decision",
        "to_visit_id": "nanxing_02_minjiang_departure",
        "certainty": "medium",
        "note": "按章节行程节点顺序连线；用于阅读，不代表精确古代航道或驿路。"
      },
      "geometry": {
        "type": "LineString",
        "coordinates": [
          [
            103.8485,
            30.0754
          ],
          [
            103.79,
            29.85
          ]
        ]
      }
    },
    {
      "type": "Feature",
      "properties": {
        "kind": "journey_segment",
        "journey_id": "nanxing_1059_1060",
        "segment_id": "nanxing_segment_02",
        "order": 2,
        "phase_id": "nanxing_water",
        "travel_mode": "水路",
        "from_visit_id": "nanxing_02_minjiang_departure",
        "to_visit_id": "nanxing_03_lingyun_buddha",
        "certainty": "medium",
        "note": "按章节行程节点顺序连线；用于阅读，不代表精确古代航道或驿路。"
      },
      "geometry": {
        "type": "LineString",
        "coordinates": [
          [
            103.79,
            29.85
          ],
          [
            103.7722,
            29.547
          ]
        ]
      }
    },
    {
      "type": "Feature",
      "properties": {
        "kind": "journey_segment",
        "journey_id": "nanxing_1059_1060",
        "segment_id": "nanxing_segment_03",
        "order": 3,
        "phase_id": "nanxing_water",
        "travel_mode": "水路",
        "from_visit_id": "nanxing_03_lingyun_buddha",
        "to_visit_id": "nanxing_04_rongzhou_yibin",
        "certainty": "medium",
        "note": "按章节行程节点顺序连线；用于阅读，不代表精确古代航道或驿路。"
      },
      "geometry": {
        "type": "LineString",
        "coordinates": [
          [
            103.7722,
            29.547
          ],
          [
            104.6432,
            28.7518
          ]
        ]
      }
    },
    {
      "type": "Feature",
      "properties": {
        "kind": "journey_segment",
        "journey_id": "nanxing_1059_1060",
        "segment_id": "nanxing_segment_04",
        "order": 4,
        "phase_id": "nanxing_water",
        "travel_mode": "水路",
        "from_visit_id": "nanxing_04_rongzhou_yibin",
        "to_visit_id": "nanxing_05_niukou",
        "certainty": "low",
        "note": "按章节行程节点顺序连线；用于阅读，不代表精确古代航道或驿路。"
      },
      "geometry": {
        "type": "LineString",
        "coordinates": [
          [
            104.6432,
            28.7518
          ],
          [
            105.0,
            28.8
          ]
        ]
      }
    },
    {
      "type": "Feature",
      "properties": {
        "kind": "journey_segment",
        "journey_id": "nanxing_1059_1060",
        "segment_id": "nanxing_segment_05",
        "order": 5,
        "phase_id": "nanxing_water",
        "travel_mode": "水路",
        "from_visit_id": "nanxing_05_niukou",
        "to_visit_id": "nanxing_06_luzhou_anleshan",
        "certainty": "low",
        "note": "按章节行程节点顺序连线；用于阅读，不代表精确古代航道或驿路。"
      },
      "geometry": {
        "type": "LineString",
        "coordinates": [
          [
            105.0,
            28.8
          ],
          [
            105.4427,
            28.8718
          ]
        ]
      }
    },
    {
      "type": "Feature",
      "properties": {
        "kind": "journey_segment",
        "journey_id": "nanxing_1059_1060",
        "segment_id": "nanxing_segment_06",
        "order": 6,
        "phase_id": "nanxing_water",
        "travel_mode": "水路",
        "from_visit_id": "nanxing_06_luzhou_anleshan",
        "to_visit_id": "nanxing_07_chuanjiang_mountains",
        "certainty": "low",
        "note": "按章节行程节点顺序连线；用于阅读，不代表精确古代航道或驿路。"
      },
      "geometry": {
        "type": "LineString",
        "coordinates": [
          [
            105.4427,
            28.8718
          ],
          [
            106.0,
            29.05
          ]
        ]
      }
    },
    {
      "type": "Feature",
      "properties": {
        "kind": "journey_segment",
        "journey_id": "nanxing_1059_1060",
        "segment_id": "nanxing_segment_07",
        "order": 7,
        "phase_id": "nanxing_water",
        "travel_mode": "水路",
        "from_visit_id": "nanxing_07_chuanjiang_mountains",
        "to_visit_id": "nanxing_08_chuanjiang_snow",
        "certainty": "low",
        "note": "按章节行程节点顺序连线；用于阅读，不代表精确古代航道或驿路。"
      },
      "geometry": {
        "type": "LineString",
        "coordinates": [
          [
            106.0,
            29.05
          ],
          [
            106.3,
            29.3
          ]
        ]
      }
    },
    {
      "type": "Feature",
      "properties": {
        "kind": "journey_segment",
        "journey_id": "nanxing_1059_1060",
        "segment_id": "nanxing_segment_08",
        "order": 8,
        "phase_id": "nanxing_water",
        "travel_mode": "水路",
        "from_visit_id": "nanxing_08_chuanjiang_snow",
        "to_visit_id": "nanxing_09_zhongzhou_to_kuizhou",
        "certainty": "low",
        "note": "按章节行程节点顺序连线；用于阅读，不代表精确古代航道或驿路。"
      },
      "geometry": {
        "type": "LineString",
        "coordinates": [
          [
            106.3,
            29.3
          ],
          [
            108.034,
            30.299
          ]
        ]
      }
    },
    {
      "type": "Feature",
      "properties": {
        "kind": "journey_segment",
        "journey_id": "nanxing_1059_1060",
        "segment_id": "nanxing_segment_09",
        "order": 9,
        "phase_id": "nanxing_water",
        "travel_mode": "水路",
        "from_visit_id": "nanxing_09_zhongzhou_to_kuizhou",
        "to_visit_id": "nanxing_10_kuizhou_qutang",
        "certainty": "medium",
        "note": "按章节行程节点顺序连线；用于阅读，不代表精确古代航道或驿路。"
      },
      "geometry": {
        "type": "LineString",
        "coordinates": [
          [
            108.034,
            30.299
          ],
          [
            109.463,
            31.018
          ]
        ]
      }
    },
    {
      "type": "Feature",
      "properties": {
        "kind": "journey_segment",
        "journey_id": "nanxing_1059_1060",
        "segment_id": "nanxing_segment_10",
        "order": 10,
        "phase_id": "nanxing_water",
        "travel_mode": "水路",
        "from_visit_id": "nanxing_10_kuizhou_qutang",
        "to_visit_id": "nanxing_11_yanyu",
        "certainty": "medium",
        "note": "按章节行程节点顺序连线；用于阅读，不代表精确古代航道或驿路。"
      },
      "geometry": {
        "type": "LineString",
        "coordinates": [
          [
            109.463,
            31.018
          ],
          [
            109.56,
            31.03
          ]
        ]
      }
    },
    {
      "type": "Feature",
      "properties": {
        "kind": "journey_segment",
        "journey_id": "nanxing_1059_1060",
        "segment_id": "nanxing_segment_11",
        "order": 11,
        "phase_id": "nanxing_water",
        "travel_mode": "水路",
        "from_visit_id": "nanxing_11_yanyu",
        "to_visit_id": "nanxing_12_wushan_wuxia",
        "certainty": "medium",
        "note": "按章节行程节点顺序连线；用于阅读，不代表精确古代航道或驿路。"
      },
      "geometry": {
        "type": "LineString",
        "coordinates": [
          [
            109.56,
            31.03
          ],
          [
            109.879,
            31.074
          ]
        ]
      }
    },
    {
      "type": "Feature",
      "properties": {
        "kind": "journey_segment",
        "journey_id": "nanxing_1059_1060",
        "segment_id": "nanxing_segment_12",
        "order": 12,
        "phase_id": "nanxing_water",
        "travel_mode": "水路",
        "from_visit_id": "nanxing_12_wushan_wuxia",
        "to_visit_id": "nanxing_13_xintan",
        "certainty": "medium",
        "note": "按章节行程节点顺序连线；用于阅读，不代表精确古代航道或驿路。"
      },
      "geometry": {
        "type": "LineString",
        "coordinates": [
          [
            109.879,
            31.074
          ],
          [
            110.98,
            30.825
          ]
        ]
      }
    },
    {
      "type": "Feature",
      "properties": {
        "kind": "journey_segment",
        "journey_id": "nanxing_1059_1060",
        "segment_id": "nanxing_segment_13",
        "order": 13,
        "phase_id": "nanxing_water",
        "travel_mode": "水路",
        "from_visit_id": "nanxing_13_xintan",
        "to_visit_id": "nanxing_14_exit_gorges",
        "certainty": "medium",
        "note": "按章节行程节点顺序连线；用于阅读，不代表精确古代航道或驿路。"
      },
      "geometry": {
        "type": "LineString",
        "coordinates": [
          [
            110.98,
            30.825
          ],
          [
            111.17,
            30.78
          ]
        ]
      }
    },
    {
      "type": "Feature",
      "properties": {
        "kind": "journey_segment",
        "journey_id": "nanxing_1059_1060",
        "segment_id": "nanxing_segment_14",
        "order": 14,
        "phase_id": "nanxing_water",
        "travel_mode": "水路",
        "from_visit_id": "nanxing_14_exit_gorges",
        "to_visit_id": "nanxing_15_yiling",
        "certainty": "medium",
        "note": "按章节行程节点顺序连线；用于阅读，不代表精确古代航道或驿路。"
      },
      "geometry": {
        "type": "LineString",
        "coordinates": [
          [
            111.17,
            30.78
          ],
          [
            111.286,
            30.691
          ]
        ]
      }
    },
    {
      "type": "Feature",
      "properties": {
        "kind": "journey_segment",
        "journey_id": "nanxing_1059_1060",
        "segment_id": "nanxing_segment_15",
        "order": 15,
        "phase_id": "nanxing_water",
        "travel_mode": "水路",
        "from_visit_id": "nanxing_15_yiling",
        "to_visit_id": "nanxing_16_jiangling_arrival",
        "certainty": "medium",
        "note": "按章节行程节点顺序连线；用于阅读，不代表精确古代航道或驿路。"
      },
      "geometry": {
        "type": "LineString",
        "coordinates": [
          [
            111.286,
            30.691
          ],
          [
            112.2397,
            30.3352
          ]
        ]
      }
    },
    {
      "type": "Feature",
      "properties": {
        "kind": "journey_segment",
        "journey_id": "nanxing_1059_1060",
        "segment_id": "nanxing_segment_16",
        "order": 16,
        "phase_id": "nanxing_water",
        "travel_mode": "水路",
        "from_visit_id": "nanxing_16_jiangling_arrival",
        "to_visit_id": "nanxing_17_jingzhou_new_year",
        "certainty": "medium",
        "note": "按章节行程节点顺序连线；用于阅读，不代表精确古代航道或驿路。"
      },
      "geometry": {
        "type": "LineString",
        "coordinates": [
          [
            112.2397,
            30.3352
          ],
          [
            112.2397,
            30.3352
          ]
        ]
      }
    },
    {
      "type": "Feature",
      "properties": {
        "kind": "journey_segment",
        "journey_id": "nanxing_1059_1060",
        "segment_id": "nanxing_segment_17",
        "order": 17,
        "phase_id": "nanxing_land",
        "travel_mode": "陆路",
        "from_visit_id": "nanxing_17_jingzhou_new_year",
        "to_visit_id": "nanxing_18_jingzhou_departure",
        "certainty": "medium",
        "note": "按章节行程节点顺序连线；用于阅读，不代表精确古代航道或驿路。"
      },
      "geometry": {
        "type": "LineString",
        "coordinates": [
          [
            112.2397,
            30.3352
          ],
          [
            112.2397,
            30.3352
          ]
        ]
      }
    },
    {
      "type": "Feature",
      "properties": {
        "kind": "journey_segment",
        "journey_id": "nanxing_1059_1060",
        "segment_id": "nanxing_segment_18",
        "order": 18,
        "phase_id": "nanxing_land",
        "travel_mode": "陆路",
        "from_visit_id": "nanxing_18_jingzhou_departure",
        "to_visit_id": "nanxing_19_xiangyang",
        "certainty": "medium",
        "note": "按章节行程节点顺序连线；用于阅读，不代表精确古代航道或驿路。"
      },
      "geometry": {
        "type": "LineString",
        "coordinates": [
          [
            112.2397,
            30.3352
          ],
          [
            112.144,
            32.042
          ]
        ]
      }
    },
    {
      "type": "Feature",
      "properties": {
        "kind": "journey_segment",
        "journey_id": "nanxing_1059_1060",
        "segment_id": "nanxing_segment_19",
        "order": 19,
        "phase_id": "nanxing_land",
        "travel_mode": "陆路",
        "from_visit_id": "nanxing_19_xiangyang",
        "to_visit_id": "nanxing_20_tangzhou",
        "certainty": "medium",
        "note": "按章节行程节点顺序连线；用于阅读，不代表精确古代航道或驿路。"
      },
      "geometry": {
        "type": "LineString",
        "coordinates": [
          [
            112.144,
            32.042
          ],
          [
            112.838,
            32.687
          ]
        ]
      }
    },
    {
      "type": "Feature",
      "properties": {
        "kind": "journey_segment",
        "journey_id": "nanxing_1059_1060",
        "segment_id": "nanxing_segment_20",
        "order": 20,
        "phase_id": "nanxing_land",
        "travel_mode": "陆路",
        "from_visit_id": "nanxing_20_tangzhou",
        "to_visit_id": "nanxing_21_xuzhou",
        "certainty": "medium",
        "note": "按章节行程节点顺序连线；用于阅读，不代表精确古代航道或驿路。"
      },
      "geometry": {
        "type": "LineString",
        "coordinates": [
          [
            112.838,
            32.687
          ],
          [
            113.852,
            34.035
          ]
        ]
      }
    },
    {
      "type": "Feature",
      "properties": {
        "kind": "journey_segment",
        "journey_id": "nanxing_1059_1060",
        "segment_id": "nanxing_segment_21",
        "order": 21,
        "phase_id": "nanxing_land",
        "travel_mode": "陆路",
        "from_visit_id": "nanxing_21_xuzhou",
        "to_visit_id": "nanxing_22_ruzhou",
        "certainty": "medium",
        "note": "按章节行程节点顺序连线；用于阅读，不代表精确古代航道或驿路。"
      },
      "geometry": {
        "type": "LineString",
        "coordinates": [
          [
            113.852,
            34.035
          ],
          [
            112.844,
            34.167
          ]
        ]
      }
    },
    {
      "type": "Feature",
      "properties": {
        "kind": "journey_segment",
        "journey_id": "nanxing_1059_1060",
        "segment_id": "nanxing_segment_22",
        "order": 22,
        "phase_id": "nanxing_land",
        "travel_mode": "陆路",
        "from_visit_id": "nanxing_22_ruzhou",
        "to_visit_id": "nanxing_23_weishi",
        "certainty": "medium",
        "note": "按章节行程节点顺序连线；用于阅读，不代表精确古代航道或驿路。"
      },
      "geometry": {
        "type": "LineString",
        "coordinates": [
          [
            112.844,
            34.167
          ],
          [
            114.193,
            34.412
          ]
        ]
      }
    },
    {
      "type": "Feature",
      "properties": {
        "kind": "journey_segment",
        "journey_id": "nanxing_1059_1060",
        "segment_id": "nanxing_segment_23",
        "order": 23,
        "phase_id": "nanxing_land",
        "travel_mode": "陆路",
        "from_visit_id": "nanxing_23_weishi",
        "to_visit_id": "nanxing_24_bianjing",
        "certainty": "medium",
        "note": "按章节行程节点顺序连线；用于阅读，不代表精确古代航道或驿路。"
      },
      "geometry": {
        "type": "LineString",
        "coordinates": [
          [
            114.193,
            34.412
          ],
          [
            114.3076,
            34.7973
          ]
        ]
      }
    }
  ]
}
